6 11
iridium 0
1 00001U 00000ABC 00001.00000000  .00000000  00000-0  00000+0 0    04
2 00001  87.0000   0.0000 0000001   0.0000   0.0000 14.34000000    01
iridium 1
1 00002U 00000ABC 00001.00000000  .00000000  00000-0  00000+0 0    05
2 00002  87.0000   0.0000 0000001   0.0000  32.7273 14.34000000    06
iridium 2
1 00003U 00000ABC 00001.00000000  .00000000  00000-0  00000+0 0    06
2 00003  87.0000   0.0000 0000001   0.0000  65.4545 14.34000000    02
iridium 3
1 00004U 00000ABC 00001.00000000  .00000000  00000-0  00000+0 0    07
2 00004  87.0000   0.0000 0000001   0.0000  98.1818 14.34000000    09
iridium 4
1 00005U 00000ABC 00001.00000000  .00000000  00000-0  00000+0 0    08
2 00005  87.0000   0.0000 0000001   0.0000 130.9091 14.34000000    08
iridium 5
1 00006U 00000ABC 00001.00000000  .00000000  00000-0  00000+0 0    09
2 00006  87.0000   0.0000 0000001   0.0000 163.6364 14.34000000    05
iridium 6
1 00007U 00000ABC 00001.00000000  .00000000  00000-0  00000+0 0    00
2 00007  87.0000   0.0000 0000001   0.0000 196.3636 14.34000000    01
iridium 7
1 00008U 00000ABC 00001.00000000  .00000000  00000-0  00000+0 0    01
2 00008  87.0000   0.0000 0000001   0.0000 229.0909 14.34000000    09
iridium 8
1 00009U 00000ABC 00001.00000000  .00000000  00000-0  00000+0 0    02
2 00009  87.0000   0.0000 0000001   0.0000 261.8182 14.34000000    07
iridium 9
1 00010U 00000ABC 00001.00000000  .00000000  00000-0  00000+0 0    04
2 00010  87.0000   0.0000 0000001   0.0000 294.5455 14.34000000    05
iridium 10
1 00011U 00000ABC 00001.00000000  .00000000  00000-0  00000+0 0    05
2 00011  87.0000   0.0000 0000001   0.0000 327.2727 14.34000000    02
iridium 11
1 00012U 00000ABC 00001.00000000  .00000000  00000-0  00000+0 0    06
2 00012  87.0000  60.0000 0000001   0.0000  16.3636 14.34000000    04
iridium 12
1 00013U 00000ABC 00001.00000000  .00000000  00000-0  00000+0 0    07
2 00013  87.0000  60.0000 0000001   0.0000  49.0909 14.34000000    01
iridium 13
1 00014U 00000ABC 00001.00000000  .00000000  00000-0  00000+0 0    08
2 00014  87.0000  60.0000 0000001   0.0000  81.8182 14.34000000    09
iridium 14
1 00015U 00000ABC 00001.00000000  .00000000  00000-0  00000+0 0    09
2 00015  87.0000  60.0000 0000001   0.0000 114.5455 14.34000000    07
iridium 15
1 00016U 00000ABC 00001.00000000  .00000000  00000-0  00000+0 0    00
2 00016  87.0000  60.0000 0000001   0.0000 147.2727 14.34000000    03
iridium 16
1 00017U 00000ABC 00001.00000000  .00000000  00000-0  00000+0 0    01
2 00017  87.0000  60.0000 0000001   0.0000 180.0000 14.34000000    03
iridium 17
1 00018U 00000ABC 00001.00000000  .00000000  00000-0  00000+0 0    02
2 00018  87.0000  60.0000 0000001   0.0000 212.7273 14.34000000    09
iridium 18
1 00019U 00000ABC 00001.00000000  .00000000  00000-0  00000+0 0    03
2 00019  87.0000  60.0000 0000001   0.0000 245.4545 14.34000000    05
iridium 19
1 00020U 00000ABC 00001.00000000  .00000000  00000-0  00000+0 0    05
2 00020  87.0000  60.0000 0000001   0.0000 278.1818 14.34000000    03
iridium 20
1 00021U 00000ABC 00001.00000000  .00000000  00000-0  00000+0 0    06
2 00021  87.0000  60.0000 0000001   0.0000 310.9091 14.34000000    02
iridium 21
1 00022U 00000ABC 00001.00000000  .00000000  00000-0  00000+0 0    07
2 00022  87.0000  60.0000 0000001   0.0000 343.6364 14.34000000    09
iridium 22
1 00023U 00000ABC 00001.00000000  .00000000  00000-0  00000+0 0    08
2 00023  87.0000 120.0000 0000001   0.0000   0.0000 14.34000000    08
iridium 23
1 00024U 00000ABC 00001.00000000  .00000000  00000-0  00000+0 0    09
2 00024  87.0000 120.0000 0000001   0.0000  32.7273 14.34000000    03
iridium 24
1 00025U 00000ABC 00001.00000000  .00000000  00000-0  00000+0 0    00
2 00025  87.0000 120.0000 0000001   0.0000  65.4545 14.34000000    09
iridium 25
1 00026U 00000ABC 00001.00000000  .00000000  00000-0  00000+0 0    01
2 00026  87.0000 120.0000 0000001   0.0000  98.1818 14.34000000    06
iridium 26
1 00027U 00000ABC 00001.00000000  .00000000  00000-0  00000+0 0    02
2 00027  87.0000 120.0000 0000001   0.0000 130.9091 14.34000000    05
iridium 27
1 00028U 00000ABC 00001.00000000  .00000000  00000-0  00000+0 0    03
2 00028  87.0000 120.0000 0000001   0.0000 163.6364 14.34000000    02
iridium 28
1 00029U 00000ABC 00001.00000000  .00000000  00000-0  00000+0 0    04
2 00029  87.0000 120.0000 0000001   0.0000 196.3636 14.34000000    08
iridium 29
1 00030U 00000ABC 00001.00000000  .00000000  00000-0  00000+0 0    06
2 00030  87.0000 120.0000 0000001   0.0000 229.0909 14.34000000    07
iridium 30
1 00031U 00000ABC 00001.00000000  .00000000  00000-0  00000+0 0    07
2 00031  87.0000 120.0000 0000001   0.0000 261.8182 14.34000000    05
iridium 31
1 00032U 00000ABC 00001.00000000  .00000000  00000-0  00000+0 0    08
2 00032  87.0000 120.0000 0000001   0.0000 294.5455 14.34000000    02
iridium 32
1 00033U 00000ABC 00001.00000000  .00000000  00000-0  00000+0 0    09
2 00033  87.0000 120.0000 0000001   0.0000 327.2727 14.34000000    09
iridium 33
1 00034U 00000ABC 00001.00000000  .00000000  00000-0  00000+0 0    00
2 00034  87.0000 180.0000 0000001   0.0000  16.3636 14.34000000    01
iridium 34
1 00035U 00000ABC 00001.00000000  .00000000  00000-0  00000+0 0    01
2 00035  87.0000 180.0000 0000001   0.0000  49.0909 14.34000000    08
iridium 35
1 00036U 00000ABC 00001.00000000  .00000000  00000-0  00000+0 0    02
2 00036  87.0000 180.0000 0000001   0.0000  81.8182 14.34000000    06
iridium 36
1 00037U 00000ABC 00001.00000000  .00000000  00000-0  00000+0 0    03
2 00037  87.0000 180.0000 0000001   0.0000 114.5455 14.34000000    04
iridium 37
1 00038U 00000ABC 00001.00000000  .00000000  00000-0  00000+0 0    04
2 00038  87.0000 180.0000 0000001   0.0000 147.2727 14.34000000    00
iridium 38
1 00039U 00000ABC 00001.00000000  .00000000  00000-0  00000+0 0    05
2 00039  87.0000 180.0000 0000001   0.0000 180.0000 14.34000000    00
iridium 39
1 00040U 00000ABC 00001.00000000  .00000000  00000-0  00000+0 0    07
2 00040  87.0000 180.0000 0000001   0.0000 212.7273 14.34000000    07
iridium 40
1 00041U 00000ABC 00001.00000000  .00000000  00000-0  00000+0 0    08
2 00041  87.0000 180.0000 0000001   0.0000 245.4545 14.34000000    03
iridium 41
1 00042U 00000ABC 00001.00000000  .00000000  00000-0  00000+0 0    09
2 00042  87.0000 180.0000 0000001   0.0000 278.1818 14.34000000    00
iridium 42
1 00043U 00000ABC 00001.00000000  .00000000  00000-0  00000+0 0    00
2 00043  87.0000 180.0000 0000001   0.0000 310.9091 14.34000000    09
iridium 43
1 00044U 00000ABC 00001.00000000  .00000000  00000-0  00000+0 0    01
2 00044  87.0000 180.0000 0000001   0.0000 343.6364 14.34000000    06
iridium 44
1 00045U 00000ABC 00001.00000000  .00000000  00000-0  00000+0 0    02
2 00045  87.0000 240.0000 0000001   0.0000   0.0000 14.34000000    05
iridium 45
1 00046U 00000ABC 00001.00000000  .00000000  00000-0  00000+0 0    03
2 00046  87.0000 240.0000 0000001   0.0000  32.7273 14.34000000    00
iridium 46
1 00047U 00000ABC 00001.00000000  .00000000  00000-0  00000+0 0    04
2 00047  87.0000 240.0000 0000001   0.0000  65.4545 14.34000000    06
iridium 47
1 00048U 00000ABC 00001.00000000  .00000000  00000-0  00000+0 0    05
2 00048  87.0000 240.0000 0000001   0.0000  98.1818 14.34000000    03
iridium 48
1 00049U 00000ABC 00001.00000000  .00000000  00000-0  00000+0 0    06
2 00049  87.0000 240.0000 0000001   0.0000 130.9091 14.34000000    02
iridium 49
1 00050U 00000ABC 00001.00000000  .00000000  00000-0  00000+0 0    08
2 00050  87.0000 240.0000 0000001   0.0000 163.6364 14.34000000    00
iridium 50
1 00051U 00000ABC 00001.00000000  .00000000  00000-0  00000+0 0    09
2 00051  87.0000 240.0000 0000001   0.0000 196.3636 14.34000000    06
iridium 51
1 00052U 00000ABC 00001.00000000  .00000000  00000-0  00000+0 0    00
2 00052  87.0000 240.0000 0000001   0.0000 229.0909 14.34000000    04
iridium 52
1 00053U 00000ABC 00001.00000000  .00000000  00000-0  00000+0 0    01
2 00053  87.0000 240.0000 0000001   0.0000 261.8182 14.34000000    02
iridium 53
1 00054U 00000ABC 00001.00000000  .00000000  00000-0  00000+0 0    02
2 00054  87.0000 240.0000 0000001   0.0000 294.5455 14.34000000    09
iridium 54
1 00055U 00000ABC 00001.00000000  .00000000  00000-0  00000+0 0    03
2 00055  87.0000 240.0000 0000001   0.0000 327.2727 14.34000000    06
iridium 55
1 00056U 00000ABC 00001.00000000  .00000000  00000-0  00000+0 0    04
2 00056  87.0000 300.0000 0000001   0.0000  16.3636 14.34000000    09
iridium 56
1 00057U 00000ABC 00001.00000000  .00000000  00000-0  00000+0 0    05
2 00057  87.0000 300.0000 0000001   0.0000  49.0909 14.34000000    06
iridium 57
1 00058U 00000ABC 00001.00000000  .00000000  00000-0  00000+0 0    06
2 00058  87.0000 300.0000 0000001   0.0000  81.8182 14.34000000    04
iridium 58
1 00059U 00000ABC 00001.00000000  .00000000  00000-0  00000+0 0    07
2 00059  87.0000 300.0000 0000001   0.0000 114.5455 14.34000000    02
iridium 59
1 00060U 00000ABC 00001.00000000  .00000000  00000-0  00000+0 0    09
2 00060  87.0000 300.0000 0000001   0.0000 147.2727 14.34000000    09
iridium 60
1 00061U 00000ABC 00001.00000000  .00000000  00000-0  00000+0 0    00
2 00061  87.0000 300.0000 0000001   0.0000 180.0000 14.34000000    09
iridium 61
1 00062U 00000ABC 00001.00000000  .00000000  00000-0  00000+0 0    01
2 00062  87.0000 300.0000 0000001   0.0000 212.7273 14.34000000    05
iridium 62
1 00063U 00000ABC 00001.00000000  .00000000  00000-0  00000+0 0    02
2 00063  87.0000 300.0000 0000001   0.0000 245.4545 14.34000000    01
iridium 63
1 00064U 00000ABC 00001.00000000  .00000000  00000-0  00000+0 0    03
2 00064  87.0000 300.0000 0000001   0.0000 278.1818 14.34000000    08
iridium 64
1 00065U 00000ABC 00001.00000000  .00000000  00000-0  00000+0 0    04
2 00065  87.0000 300.0000 0000001   0.0000 310.9091 14.34000000    07
iridium 65
1 00066U 00000ABC 00001.00000000  .00000000  00000-0  00000+0 0    05
2 00066  87.0000 300.0000 0000001   0.0000 343.6364 14.34000000    04
